<?xml version="1.0" encoding="UTF-8"?>
<kml xmlns="http://www.opengis.net/kml/2.2">
  <Document>
    <name>Pealkirjata kaart</name>
    <description/>
    <Style id="icon-1526-FF5252-nodesc-normal">
      <IconStyle>
        <color>ff5252ff</color>
        <scale>1</scale>
        <Icon>
          <href>https://www.gstatic.com/mapspro/images/stock/503-wht-blank_maps.png</href>
        </Icon>
      </IconStyle>
      <LabelStyle>
        <scale>0</scale>
      </LabelStyle>
      <BalloonStyle>
        <text><![CDATA[<h3>$[name]</h3>]]></text>
      </BalloonStyle>
    </Style>
    <Style id="icon-1526-FF5252-nodesc-highlight">
      <IconStyle>
        <color>ff5252ff</color>
        <scale>1</scale>
        <Icon>
          <href>https://www.gstatic.com/mapspro/images/stock/503-wht-blank_maps.png</href>
        </Icon>
      </IconStyle>
      <LabelStyle>
        <scale>1</scale>
      </LabelStyle>
      <BalloonStyle>
        <text><![CDATA[<h3>$[name]</h3>]]></text>
      </BalloonStyle>
    </Style>
    <StyleMap id="icon-1526-FF5252-nodesc">
      <Pair>
        <key>normal</key>
        <styleUrl>#icon-1526-FF5252-nodesc-normal</styleUrl>
      </Pair>
      <Pair>
        <key>highlight</key>
        <styleUrl>#icon-1526-FF5252-nodesc-highlight</styleUrl>
      </Pair>
    </StyleMap>
    <Style id="icon-1899-DB4436-nodesc-normal">
      <IconStyle>
        <color>ff3644db</color>
        <scale>1</scale>
        <Icon>
          <href>https://www.gstatic.com/mapspro/images/stock/503-wht-blank_maps.png</href>
        </Icon>
        <hotSpot x="32" xunits="pixels" y="64" yunits="insetPixels"/>
      </IconStyle>
      <LabelStyle>
        <scale>0</scale>
      </LabelStyle>
      <BalloonStyle>
        <text><![CDATA[<h3>$[name]</h3>]]></text>
      </BalloonStyle>
    </Style>
    <Style id="icon-1899-DB4436-nodesc-highlight">
      <IconStyle>
        <color>ff3644db</color>
        <scale>1</scale>
        <Icon>
          <href>https://www.gstatic.com/mapspro/images/stock/503-wht-blank_maps.png</href>
        </Icon>
        <hotSpot x="32" xunits="pixels" y="64" yunits="insetPixels"/>
      </IconStyle>
      <LabelStyle>
        <scale>1</scale>
      </LabelStyle>
      <BalloonStyle>
        <text><![CDATA[<h3>$[name]</h3>]]></text>
      </BalloonStyle>
    </Style>
    <StyleMap id="icon-1899-DB4436-nodesc">
      <Pair>
        <key>normal</key>
        <styleUrl>#icon-1899-DB4436-nodesc-normal</styleUrl>
      </Pair>
      <Pair>
        <key>highlight</key>
        <styleUrl>#icon-1899-DB4436-nodesc-highlight</styleUrl>
      </Pair>
    </StyleMap>
    <Style id="line-1267FF-5000-nodesc-normal">
      <LineStyle>
        <color>ffff6712</color>
        <width>5</width>
      </LineStyle>
      <BalloonStyle>
        <text><![CDATA[<h3>$[name]</h3>]]></text>
      </BalloonStyle>
    </Style>
    <Style id="line-1267FF-5000-nodesc-highlight">
      <LineStyle>
        <color>ffff6712</color>
        <width>7.5</width>
      </LineStyle>
      <BalloonStyle>
        <text><![CDATA[<h3>$[name]</h3>]]></text>
      </BalloonStyle>
    </Style>
    <StyleMap id="line-1267FF-5000-nodesc">
      <Pair>
        <key>normal</key>
        <styleUrl>#line-1267FF-5000-nodesc-normal</styleUrl>
      </Pair>
      <Pair>
        <key>highlight</key>
        <styleUrl>#line-1267FF-5000-nodesc-highlight</styleUrl>
      </Pair>
    </StyleMap>
    <Style id="poly-FFD600-2000-77-nodesc-normal">
      <LineStyle>
        <color>ff00d6ff</color>
        <width>2</width>
      </LineStyle>
      <PolyStyle>
        <color>4d00d6ff</color>
        <fill>1</fill>
        <outline>1</outline>
      </PolyStyle>
      <BalloonStyle>
        <text><![CDATA[<h3>$[name]</h3>]]></text>
      </BalloonStyle>
    </Style>
    <Style id="poly-FFD600-2000-77-nodesc-highlight">
      <LineStyle>
        <color>ff00d6ff</color>
        <width>3</width>
      </LineStyle>
      <PolyStyle>
        <color>4d00d6ff</color>
        <fill>1</fill>
        <outline>1</outline>
      </PolyStyle>
      <BalloonStyle>
        <text><![CDATA[<h3>$[name]</h3>]]></text>
      </BalloonStyle>
    </Style>
    <StyleMap id="poly-FFD600-2000-77-nodesc">
      <Pair>
        <key>normal</key>
        <styleUrl>#poly-FFD600-2000-77-nodesc-normal</styleUrl>
      </Pair>
      <Pair>
        <key>highlight</key>
        <styleUrl>#poly-FFD600-2000-77-nodesc-highlight</styleUrl>
      </Pair>
    </StyleMap>
    <Folder>
      <name>Pealkirjata kiht</name>
      <Placemark>
        <name>Tallinna Tööstushariduskeskus</name>
        <styleUrl>#icon-1526-FF5252-nodesc</styleUrl>
        <Point>
          <coordinates>
            24.7049967,59.4112872,0
          </coordinates>
        </Point>
      </Placemark>
      <Placemark>
        <name>Mahtra tn 66</name>
        <styleUrl>#poly-FFD600-2000-77-nodesc</styleUrl>
        <Polygon>
          <outerBoundaryIs>
            <LinearRing>
              <tessellate>1</tessellate>
              <coordinates>
                24.879854,59.440893,0
                24.879768,59.440477,0
                24.880003,59.440465,0
                24.880065,59.440881,0
                24.879854,59.440893,0
              </coordinates>
            </LinearRing>
          </outerBoundaryIs>
        </Polygon>
      </Placemark>
    </Folder>
    <Folder>
      <name>Juhised lähtekohast Tallinna Tööstushariduskeskus sihtkohta Mahtra tänav 66, Tallinn</name>
      <Placemark>
        <name>Juhised lähtekohast Tallinna Tööstushariduskeskus sihtkohta Mahtra tänav 66, Tallinn</name>
        <styleUrl>#line-1267FF-5000-nodesc</styleUrl>
        <LineString>
          <tessellate>1</tessellate>
          <coordinates>
            24.70475,59.41109,0
            24.70488,59.41105,0
            24.70498,59.41096,0
            24.70511,59.41091,0
            24.7054,59.41086,0
            24.70552,59.41083,0
            24.70557,59.41082,0
            24.70576,59.41078,0
            24.70556,59.41051,0
            24.7054,59.41031,0
            24.70533,59.41022,0
            24.70482,59.40959,0
            24.70473,59.40948,0
            24.70384,59.40843,0
            24.70352,59.40811,0
            24.703,59.40759,0
            24.70252,59.40699,0
            24.70228,59.40674,0
            24.70194,59.40636,0
            24.70162,59.40607,0
            24.70156,59.40599,0
            24.70128,59.40568,0
            24.70108,59.40548,0
            24.70089,59.40526,0
            24.70082,59.40517,0
            24.70066,59.40504,0
            24.7009,59.40498,0
            24.70107,59.40493,0
            24.70139,59.40484,0
            24.7043,59.404,0
            24.70544,59.40366,0
            24.70606,59.40349,0
            24.70632,59.40341,0
            24.70686,59.40327,0
            24.70701,59.40322,0
            24.7071,59.4032,0
            24.70723,59.40316,0
            24.70848,59.4028,0
            24.70872,59.40273,0
            24.70928,59.40259,0
            24.70966,59.40251,0
            24.70987,59.40246,0
            24.71009,59.40242,0
            24.71026,59.40238,0
            24.71045,59.40236,0
            24.71077,59.40233,0
            24.71096,59.40231,0
            24.71125,59.40229,0
            24.71161,59.40228,0
            24.7119,59.40227,0
            24.71245,59.40226,0
            24.7131,59.40225,0
            24.71346,59.40224,0
            24.71371,59.40224,0
            24.71382,59.40223,0
            24.71402,59.40223,0
            24.7143,59.40223,0
            24.71453,59.40222,0
            24.71484,59.40222,0
            24.71499,59.40222,0
            24.71528,59.40222,0
            24.71559,59.40223,0
            24.71595,59.40225,0
            24.71655,59.4023,0
            24.71672,59.40232,0
            24.71713,59.40236,0
            24.71753,59.40239,0
            24.71771,59.4024,0
            24.71784,59.40241,0
            24.71797,59.40242,0
            24.71812,59.40243,0
            24.71849,59.40243,0
            24.71871,59.40244,0
            24.71894,59.40244,0
            24.71928,59.40243,0
            24.71945,59.40243,0
            24.71971,59.40242,0
            24.72014,59.40239,0
            24.72054,59.40235,0
            24.72139,59.40229,0
            24.72146,59.40229,0
            24.72246,59.40225,0
            24.72321,59.40227,0
            24.72391,59.40231,0
            24.72426,59.40234,0
            24.72474,59.40239,0
            24.72497,59.40243,0
            24.72565,59.40251,0
            24.72712,59.40272,0
            24.72869,59.40293,0
            24.72929,59.40299,0
            24.72965,59.40303,0
            24.72978,59.40304,0
            24.7312,59.4032,0
            24.73139,59.40322,0
            24.73185,59.40328,0
            24.73227,59.40333,0
            24.73294,59.40342,0
            24.73354,59.40351,0
            24.73363,59.40352,0
            24.73463,59.4037,0
            24.7353,59.40394,0
            24.73593,59.40409,0
            24.73597,59.4041,0
            24.7361,59.40413,0
            24.73641,59.40419,0
            24.73645,59.4042,0
            24.7369,59.40435,0
            24.73731,59.40446,0
            24.73733,59.40447,0
            24.73752,59.40452,0
            24.73772,59.40457,0
            24.73794,59.40463,0
            24.73881,59.40494,0
            24.74003,59.40535,0
            24.74571,59.4073,0
            24.74687,59.4077,0
            24.7484,59.40823,0
            24.75169,59.4094,0
            24.75363,59.41009,0
            24.75391,59.4102,0
            24.75425,59.41034,0
            24.7546,59.41049,0
            24.75523,59.41081,0
            24.75561,59.41102,0
            24.7557,59.41107,0
            24.7571,59.41186,0
            24.75768,59.41227,0
            24.75837,59.4128,0
            24.75837,59.41281,0
            24.75876,59.41308,0
            24.75941,59.41369,0
            24.76018,59.41439,0
            24.76041,59.41458,0
            24.76105,59.41506,0
            24.76194,59.4157,0
            24.76271,59.41621,0
            24.76355,59.41672,0
            24.76432,59.41718,0
            24.76462,59.41737,0
            24.76533,59.41781,0
            24.76597,59.41825,0
            24.76652,59.41871,0
            24.76732,59.41939,0
            24.76764,59.4197,0
            24.76785,59.41989,0
            24.76797,59.41999,0
            24.76818,59.42017,0
            24.7683,59.42026,0
            24.76842,59.42035,0
            24.76853,59.42043,0
            24.76865,59.42051,0
            24.76877,59.42059,0
            24.76884,59.42063,0
            24.76893,59.42068,0
            24.76901,59.42073,0
            24.7691,59.42078,0
            24.7692,59.42084,0
            24.76931,59.42089,0
            24.76949,59.42099,0
            24.76957,59.42102,0
            24.76966,59.42106,0
            24.76982,59.42114,0
            24.76996,59.42119,0
            24.77011,59.42126,0
            24.77019,59.42129,0
            24.77029,59.42133,0
            24.77036,59.42136,0
            24.77045,59.42139,0
            24.77053,59.42141,0
            24.77072,59.42148,0
            24.77089,59.42154,0
            24.77095,59.42156,0
            24.77115,59.42162,0
            24.77127,59.42166,0
            24.77141,59.4217,0
            24.77168,59.42177,0
            24.77207,59.42187,0
            24.77289,59.42208,0
            24.77335,59.42222,0
            24.77357,59.42229,0
            24.77389,59.42239,0
            24.77405,59.42244,0
            24.77423,59.4225,0
            24.77434,59.42253,0
            24.77444,59.42257,0
            24.77465,59.42263,0
            24.77486,59.42269,0
            24.77497,59.42272,0
            24.77507,59.42275,0
            24.7752,59.42278,0
            24.77534,59.42282,0
            24.77558,59.42288,0
            24.77611,59.423,0
            24.77632,59.42304,0
            24.77648,59.42308,0
            24.77657,59.4231,0
            24.7767,59.42312,0
            24.77687,59.42315,0
            24.77702,59.42318,0
            24.77717,59.42321,0
            24.7774,59.42325,0
            24.77752,59.42326,0
            24.77765,59.42329,0
            24.77786,59.42332,0
            24.77798,59.42334,0
            24.77809,59.42335,0
            24.77828,59.42338,0
            24.7785,59.42341,0
            24.77867,59.42343,0
            24.77878,59.42344,0
            24.77891,59.42346,0
            24.77909,59.42347,0
            24.77922,59.42349,0
            24.77933,59.4235,0
            24.77955,59.42352,0
            24.77979,59.42354,0
            24.77989,59.42354,0
            24.78013,59.42356,0
            24.78034,59.42357,0
            24.78043,59.42357,0
            24.78054,59.42358,0
            24.78069,59.42358,0
            24.78086,59.42359,0
            24.78099,59.42359,0
            24.78114,59.4236,0
            24.78138,59.4236,0
            24.78168,59.42361,0
            24.78197,59.42362,0
            24.78219,59.42363,0
            24.7824,59.42363,0
            24.78259,59.42364,0
            24.78282,59.42365,0
            24.78303,59.42366,0
            24.78306,59.42367,0
            24.78323,59.42368,0
            24.78342,59.42369,0
            24.78362,59.42371,0
            24.78373,59.42372,0
            24.78385,59.42373,0
            24.78408,59.42375,0
            24.78426,59.42377,0
            24.78435,59.42378,0
            24.78485,59.42384,0
            24.78519,59.42388,0
            24.78537,59.42391,0
            24.78552,59.42393,0
            24.78558,59.42394,0
            24.78583,59.42398,0
            24.78606,59.42401,0
            24.78648,59.42408,0
            24.78666,59.4241,0
            24.78689,59.42414,0
            24.78696,59.42415,0
            24.78708,59.42417,0
            24.78727,59.4242,0
            24.78747,59.42422,0
            24.78787,59.42428,0
            24.78842,59.42435,0
            24.78846,59.42436,0
            24.78877,59.4244,0
            24.78947,59.42449,0
            24.78955,59.4245,0
            24.78987,59.42455,0
            24.78996,59.42456,0
            24.79036,59.42461,0
            24.79049,59.42462,0
            24.79064,59.42464,0
            24.79094,59.42467,0
            24.79126,59.4247,0
            24.79159,59.42474,0
            24.79212,59.4248,0
            24.79223,59.42482,0
            24.79281,59.4249,0
            24.79364,59.425,0
            24.79436,59.4251,0
            24.79496,59.42519,0
            24.79576,59.42529,0
            24.79638,59.42539,0
            24.79675,59.42546,0
            24.79761,59.42556,0
            24.79775,59.42557,0
            24.79782,59.42558,0
            24.79819,59.42564,0
            24.79846,59.42566,0
            24.79866,59.42569,0
            24.79904,59.42573,0
            24.79924,59.42577,0
            24.80019,59.4259,0
            24.80083,59.42595,0
            24.80109,59.42597,0
            24.80174,59.426,0
            24.80193,59.42601,0
            24.80218,59.42603,0
            24.8028,59.42607,0
            24.80311,59.42609,0
            24.80323,59.42609,0
            24.80367,59.42611,0
            24.80405,59.42612,0
            24.80445,59.42613,0
            24.80464,59.42614,0
            24.80574,59.42617,0
            24.80737,59.42626,0
            24.8086,59.42635,0
            24.80996,59.42639,0
            24.81111,59.42646,0
            24.81227,59.42652,0
            24.81315,59.42656,0
            24.81476,59.42664,0
            24.81683,59.42676,0
            24.81736,59.42678,0
            24.81788,59.4268,0
            24.81899,59.42686,0
            24.82025,59.42693,0
            24.82054,59.42695,0
            24.82093,59.42697,0
            24.82126,59.42699,0
            24.82177,59.42701,0
            24.82203,59.42703,0
            24.82226,59.42704,0
            24.82251,59.42706,0
            24.82277,59.42709,0
            24.82324,59.42714,0
            24.82362,59.42719,0
            24.82376,59.42721,0
            24.82378,59.42722,0
            24.82388,59.42723,0
            24.82399,59.42725,0
            24.82422,59.42728,0
            24.82455,59.42733,0
            24.8246,59.42734,0
            24.82469,59.42736,0
            24.8248,59.42738,0
            24.82506,59.42742,0
            24.82543,59.42748,0
            24.82637,59.42764,0
            24.82659,59.42768,0
            24.8268,59.42772,0
            24.83079,59.42839,0
            24.83267,59.42874,0
            24.833,59.42878,0
            24.83371,59.42889,0
            24.83387,59.42891,0
            24.8344,59.42898,0
            24.83518,59.42913,0
            24.83551,59.42918,0
            24.83568,59.42921,0
            24.83599,59.42928,0
            24.83684,59.42944,0
            24.8374,59.42954,0
            24.83793,59.42964,0
            24.83844,59.42973,0
            24.83981,59.42997,0
            24.84082,59.43014,0
            24.84195,59.43033,0
            24.84278,59.43046,0
            24.84437,59.43074,0
            24.84482,59.43082,0
            24.8456,59.43096,0
            24.84594,59.43102,0
            24.84627,59.43108,0
            24.84747,59.43127,0
            24.8488,59.43152,0
            24.84992,59.43171,0
            24.85068,59.43185,0
            24.85107,59.4319,0
            24.85152,59.43197,0
            24.85189,59.43204,0
            24.85261,59.43217,0
            24.8542,59.43247,0
            24.85548,59.43265,0
            24.85563,59.43267,0
            24.85583,59.4327,0
            24.85715,59.43287,0
            24.85778,59.43295,0
            24.85815,59.43299,0
            24.85927,59.43315,0
            24.85972,59.43321,0
            24.85999,59.43325,0
            24.86031,59.4333,0
            24.86036,59.43331,0
            24.86073,59.43337,0
            24.86106,59.43343,0
            24.86132,59.43348,0
            24.86159,59.43353,0
            24.86178,59.43356,0
            24.86179,59.43356,0
            24.86205,59.43361,0
            24.86257,59.43371,0
            24.86281,59.43375,0
            24.86315,59.43382,0
            24.86361,59.43391,0
            24.86377,59.43394,0
            24.86388,59.43396,0
            24.86406,59.434,0
            24.86416,59.43402,0
            24.86526,59.43425,0
            24.86844,59.43491,0
            24.86924,59.43509,0
            24.86939,59.43513,0
            24.87046,59.4354,0
            24.87298,59.43605,0
            24.87354,59.43619,0
            24.87404,59.43629,0
            24.87422,59.4364,0
            24.8743,59.43648,0
            24.87434,59.43653,0
            24.87435,59.43657,0
            24.87435,59.43659,0
            24.87433,59.43664,0
            24.87423,59.4367,0
            24.87411,59.43677,0
            24.87404,59.4368,0
            24.87399,59.43684,0
            24.87369,59.437,0
            24.87357,59.43706,0
            24.87356,59.43713,0
            24.87351,59.43723,0
            24.87351,59.43725,0
            24.87351,59.43726,0
            24.87351,59.43729,0
            24.87352,59.43738,0
            24.87402,59.43748,0
            24.87428,59.43754,0
            24.87438,59.43758,0
            24.87442,59.4376,0
            24.87445,59.43762,0
            24.8745,59.43766,0
            24.87429,59.4379,0
            24.8742,59.43797,0
            24.8739,59.43822,0
            24.87387,59.43828,0
            24.87385,59.43838,0
            24.87387,59.43848,0
            24.87392,59.43865,0
            24.87396,59.43879,0
            24.87401,59.4389,0
            24.87406,59.43899,0
            24.87411,59.43904,0
            24.87418,59.43907,0
            24.87427,59.43911,0
            24.87436,59.43914,0
            24.87525,59.43933,0
            24.87546,59.43937,0
            24.87565,59.43941,0
            24.87642,59.43958,0
            24.87724,59.43976,0
            24.87733,59.43978,0
            24.8774,59.4398,0
            24.87744,59.43983,0
            24.87747,59.43986,0
            24.8775,59.43991,0
            24.87752,59.43997,0
            24.87756,59.44012,0
            24.87759,59.44025,0
            24.87778,59.44024,0
            24.8778,59.44024,0
            24.87783,59.44024,0
            24.87787,59.44025,0
            24.8779,59.44025,0
            24.87794,59.44025,0
            24.87797,59.44026,0
            24.87805,59.44027,0
            24.8785,59.44038,0
            24.87903,59.44049,0
            24.87927,59.44053,0
            24.87938,59.44055,0
            24.87946,59.44058,0
            24.8795,59.44059,0
            24.87953,59.44061,0
            24.87955,59.44063,0
            24.87957,59.44067,0
            24.87957,59.44068,0
          </coordinates>
        </LineString>
      </Placemark>
      <Placemark>
        <name>Tallinna Tööstushariduskeskus</name>
        <styleUrl>#icon-1899-DB4436-nodesc</styleUrl>
        <Point>
          <coordinates>
            24.7047546,59.4110879,0
          </coordinates>
        </Point>
      </Placemark>
      <Placemark>
        <name>Mahtra tänav 66, Tallinn</name>
        <styleUrl>#icon-1899-DB4436-nodesc</styleUrl>
        <Point>
          <coordinates>
            24.8795716,59.4406832,0
          </coordinates>
        </Point>
      </Placemark>
    </Folder>
  </Document>
</kml>
